CCSDS_OMM_VERS = 2.0
CREATION_DATE  = 
ORIGINATOR     = 

OBJECT_NAME    = ATLAS CENTAUR R/B
OBJECT_ID      = 1972-065B
CENTER_NAME    = EARTH
REF_FRAME      = TEME
TIME_SYSTEM    = UTC
MEAN_ELEMENT_THEORY = SGP/SGP4

EPOCH          = 2026-01-04T13:38:41.180352
MEAN_MOTION    = 14.77483428
ECCENTRICITY   = .0034102
INCLINATION    = 35.0032
RA_OF_ASC_NODE = 321.4683
ARG_OF_PERICENTER = 192.1355
MEAN_ANOMALY   = 167.8526

EPHEMERIS_TYPE = 0
CLASSIFICATION_TYPE = U
NORAD_CAT_ID   = 6155
ELEMENT_SET_NO = 999
REV_AT_EPOCH   = 83177
BSTAR          = .25506E-3
MEAN_MOTION_DOT = .1843E-4
MEAN_MOTION_DDOT = 0

CCSDS_OMM_VERS = 2.0
CREATION_DATE  = 
ORIGINATOR     = 

OBJECT_NAME    = SL-8 R/B
OBJECT_ID      = 1975-112B
CENTER_NAME    = EARTH
REF_FRAME      = TEME
TIME_SYSTEM    = UTC
MEAN_ELEMENT_THEORY = SGP/SGP4

EPOCH          = 2026-01-04T18:51:43.564032
MEAN_MOTION    = 14.38163973
ECCENTRICITY   = .0016673
INCLINATION    = 74.0609
RA_OF_ASC_NODE = 136.4678
ARG_OF_PERICENTER = 245.6074
MEAN_ANOMALY   = 114.3341

EPHEMERIS_TYPE = 0
CLASSIFICATION_TYPE = U
NORAD_CAT_ID   = 8459
ELEMENT_SET_NO = 999
REV_AT_EPOCH   = 62268
BSTAR          = .15805E-3
MEAN_MOTION_DOT = .454E-5
MEAN_MOTION_DDOT = 0

CCSDS_OMM_VERS = 2.0
CREATION_DATE  = 
ORIGINATOR     = 

OBJECT_NAME    = SL-3 R/B
OBJECT_ID      = 1977-057B
CENTER_NAME    = EARTH
REF_FRAME      = TEME
TIME_SYSTEM    = UTC
MEAN_ELEMENT_THEORY = SGP/SGP4

EPOCH          = 2026-01-04T20:08:42.800928
MEAN_MOTION    = 15.43605780
ECCENTRICITY   = .0007964
INCLINATION    = 97.5691
RA_OF_ASC_NODE = 174.0789
ARG_OF_PERICENTER = 145.7223
MEAN_ANOMALY   = 214.4540

EPHEMERIS_TYPE = 0
CLASSIFICATION_TYPE = U
NORAD_CAT_ID   = 10114
ELEMENT_SET_NO = 999
REV_AT_EPOCH   = 65847
BSTAR          = .31829E-3
MEAN_MOTION_DOT = .14247E-3
MEAN_MOTION_DDOT = 0

CCSDS_OMM_VERS = 2.0
CREATION_DATE  = 
ORIGINATOR     = 

OBJECT_NAME    = SEASAT 1
OBJECT_ID      = 1978-064A
CENTER_NAME    = EARTH
REF_FRAME      = TEME
TIME_SYSTEM    = UTC
MEAN_ELEMENT_THEORY = SGP/SGP4

EPOCH          = 2026-01-04T20:33:07.903008
MEAN_MOTION    = 14.46092661
ECCENTRICITY   = .0001221
INCLINATION    = 108.0144
RA_OF_ASC_NODE = 351.5364
ARG_OF_PERICENTER = 264.5261
MEAN_ANOMALY   = 95.5745

EPHEMERIS_TYPE = 0
CLASSIFICATION_TYPE = U
NORAD_CAT_ID   = 10967
ELEMENT_SET_NO = 999
REV_AT_EPOCH   = 49728
BSTAR          = .22585E-3
MEAN_MOTION_DOT = .67E-5
MEAN_MOTION_DDOT = 0

CCSDS_OMM_VERS = 2.0
CREATION_DATE  = 
ORIGINATOR     = 

OBJECT_NAME    = SL-14 R/B
OBJECT_ID      = 1979-011B
CENTER_NAME    = EARTH
REF_FRAME      = TEME
TIME_SYSTEM    = UTC
MEAN_ELEMENT_THEORY = SGP/SGP4

EPOCH          = 2026-01-04T20:41:14.743680
MEAN_MOTION    = 14.91808014
ECCENTRICITY   = .00147
INCLINATION    = 82.5248
RA_OF_ASC_NODE = 157.1148
ARG_OF_PERICENTER = 271.0625
MEAN_ANOMALY   = 88.8910

EPHEMERIS_TYPE = 0
CLASSIFICATION_TYPE = U
NORAD_CAT_ID   = 11267
ELEMENT_SET_NO = 999
REV_AT_EPOCH   = 51926
BSTAR          = .11095E-3
MEAN_MOTION_DOT = .1146E-4
MEAN_MOTION_DDOT = 0

CCSDS_OMM_VERS = 2.0
CREATION_DATE  = 
ORIGINATOR     = 

OBJECT_NAME    = SL-8 R/B
OBJECT_ID      = 1979-089B
CENTER_NAME    = EARTH
REF_FRAME      = TEME
TIME_SYSTEM    = UTC
MEAN_ELEMENT_THEORY = SGP/SGP4

EPOCH          = 2026-01-04T20:44:56.019264
MEAN_MOTION    = 14.42299421
ECCENTRICITY   = .0015049
INCLINATION    = 74.0673
RA_OF_ASC_NODE = 209.1795
ARG_OF_PERICENTER = 34.3400
MEAN_ANOMALY   = 325.8726

EPHEMERIS_TYPE = 0
CLASSIFICATION_TYPE = U
NORAD_CAT_ID   = 11574
ELEMENT_SET_NO = 999
REV_AT_EPOCH   = 42690
BSTAR          = .10969E-3
MEAN_MOTION_DOT = .336E-5
MEAN_MOTION_DDOT = 0

CCSDS_OMM_VERS = 2.0
CREATION_DATE  = 
ORIGINATOR     = 

OBJECT_NAME    = SL-14 R/B
OBJECT_ID      = 1980-005B
CENTER_NAME    = EARTH
REF_FRAME      = TEME
TIME_SYSTEM    = UTC
MEAN_ELEMENT_THEORY = SGP/SGP4

EPOCH          = 2026-01-04T11:56:27.303936
MEAN_MOTION    = 14.90826314
ECCENTRICITY   = .00163611
INCLINATION    = 82.5138
RA_OF_ASC_NODE = 8.1125
ARG_OF_PERICENTER = 23.0368
MEAN_ANOMALY   = 337.1581

EPHEMERIS_TYPE = 0
CLASSIFICATION_TYPE = U
NORAD_CAT_ID   = 11672
ELEMENT_SET_NO = 999
REV_AT_EPOCH   = 46692
BSTAR          = .10263598E-3
MEAN_MOTION_DOT = .1037E-4
MEAN_MOTION_DDOT = 0

CCSDS_OMM_VERS = 2.0
CREATION_DATE  = 
ORIGINATOR     = 

OBJECT_NAME    = SL-8 R/B
OBJECT_ID      = 1981-003B
CENTER_NAME    = EARTH
REF_FRAME      = TEME
TIME_SYSTEM    = UTC
MEAN_ELEMENT_THEORY = SGP/SGP4

EPOCH          = 2026-01-04T16:55:35.926752
MEAN_MOTION    = 15.07975404
ECCENTRICITY   = .027498
INCLINATION    = 82.9369
RA_OF_ASC_NODE = 349.0692
ARG_OF_PERICENTER = 41.5148
MEAN_ANOMALY   = 320.6610

EPHEMERIS_TYPE = 0
CLASSIFICATION_TYPE = U
NORAD_CAT_ID   = 12139
ELEMENT_SET_NO = 999
REV_AT_EPOCH   = 30502
BSTAR          = .70971E-3
MEAN_MOTION_DOT = .26894E-3
MEAN_MOTION_DDOT = 0

CCSDS_OMM_VERS = 2.0
CREATION_DATE  = 
ORIGINATOR     = 

OBJECT_NAME    = SL-3 R/B
OBJECT_ID      = 1981-046B
CENTER_NAME    = EARTH
REF_FRAME      = TEME
TIME_SYSTEM    = UTC
MEAN_ELEMENT_THEORY = SGP/SGP4

EPOCH          = 2026-01-04T19:52:03.622080
MEAN_MOTION    = 15.40190659
ECCENTRICITY   = .0018006
INCLINATION    = 81.2318
RA_OF_ASC_NODE = 6.3043
ARG_OF_PERICENTER = 238.5729
MEAN_ANOMALY   = 121.3753

EPHEMERIS_TYPE = 0
CLASSIFICATION_TYPE = U
NORAD_CAT_ID   = 12465
ELEMENT_SET_NO = 999
REV_AT_EPOCH   = 42859
BSTAR          = .33005E-3
MEAN_MOTION_DOT = .13359E-3
MEAN_MOTION_DDOT = 0

CCSDS_OMM_VERS = 2.0
CREATION_DATE  = 
ORIGINATOR     = 

OBJECT_NAME    = SL-3 R/B
OBJECT_ID      = 1981-103B
CENTER_NAME    = EARTH
REF_FRAME      = TEME
TIME_SYSTEM    = UTC
MEAN_ELEMENT_THEORY = SGP/SGP4

EPOCH          = 2026-01-04T19:50:04.002144
MEAN_MOTION    = 15.20566995
ECCENTRICITY   = .00137
INCLINATION    = 81.1606
RA_OF_ASC_NODE = 288.3119
ARG_OF_PERICENTER = 134.8143
MEAN_ANOMALY   = 225.4204

EPHEMERIS_TYPE = 0
CLASSIFICATION_TYPE = U
NORAD_CAT_ID   = 12904
ELEMENT_SET_NO = 999
REV_AT_EPOCH   = 96352
BSTAR          = .33073E-3
MEAN_MOTION_DOT = .7284E-4
MEAN_MOTION_DDOT = 0

CCSDS_OMM_VERS = 2.0
CREATION_DATE  = 
ORIGINATOR     = 

OBJECT_NAME    = SL-3 R/B
OBJECT_ID      = 1982-013B
CENTER_NAME    = EARTH
REF_FRAME      = TEME
TIME_SYSTEM    = UTC
MEAN_ELEMENT_THEORY = SGP/SGP4

EPOCH          = 2026-01-04T19:08:14.681760
MEAN_MOTION    = 15.21324056
ECCENTRICITY   = .002364
INCLINATION    = 81.1727
RA_OF_ASC_NODE = 235.6172
ARG_OF_PERICENTER = 37.0456
MEAN_ANOMALY   = 323.2401

EPHEMERIS_TYPE = 0
CLASSIFICATION_TYPE = U
NORAD_CAT_ID   = 13068
ELEMENT_SET_NO = 999
REV_AT_EPOCH   = 39463
BSTAR          = .23952E-3
MEAN_MOTION_DOT = .5427E-4
MEAN_MOTION_DDOT = 0

CCSDS_OMM_VERS = 2.0
CREATION_DATE  = 
ORIGINATOR     = 

OBJECT_NAME    = SL-3 R/B
OBJECT_ID      = 1982-039B
CENTER_NAME    = EARTH
REF_FRAME      = TEME
TIME_SYSTEM    = UTC
MEAN_ELEMENT_THEORY = SGP/SGP4

EPOCH          = 2026-01-04T20:07:25.207680
MEAN_MOTION    = 15.09692621
ECCENTRICITY   = .0029631
INCLINATION    = 81.1702
RA_OF_ASC_NODE = 289.5195
ARG_OF_PERICENTER = 173.9323
MEAN_ANOMALY   = 186.2268

EPHEMERIS_TYPE = 0
CLASSIFICATION_TYPE = U
NORAD_CAT_ID   = 13154
ELEMENT_SET_NO = 999
REV_AT_EPOCH   = 37200
BSTAR          = .26325E-3
MEAN_MOTION_DOT = .4307E-4
MEAN_MOTION_DDOT = 0

