ATLAS CENTAUR R/B       
1 06155U 72065B   26004.56853218  .00001843  00000+0  25506-3 0  9993
2 06155  35.0032 321.4683 0034102 192.1355 167.8526 14.77483428831774
SL-8 R/B                
1 08459U 75112B   26004.78592088  .00000454  00000+0  15805-3 0  9995
2 08459  74.0609 136.4678 0016673 245.6074 114.3341 14.38163973622686
SL-3 R/B                
1 10114U 77057B   26004.83938427  .00014247  00000+0  31829-3 0  9992
2 10114  97.5691 174.0789 0007964 145.7223 214.4540 15.43605780658471
SEASAT 1                
1 10967U 78064A   26004.85634147  .00000670  00000+0  22585-3 0  9995
2 10967 108.0144 351.5364 0001221 264.5261  95.5745 14.46092661497286
SL-14 R/B               
1 11267U 79011B   26004.86197620  .00001146  00000+0  11095-3 0  9996
2 11267  82.5248 157.1148 0014700 271.0625  88.8910 14.91808014519263
SL-8 R/B                
1 11574U 79089B   26004.86453726  .00000336  00000+0  10969-3 0  9993
2 11574  74.0673 209.1795 0015049  34.3400 325.8726 14.42299421426905
SL-14 R/B               
1 11672U 80005B   26004.49753824  .00001037  00000+0  10264-3 0  9990
2 11672  82.5138   8.1125 0016361  23.0368 337.1581 14.90826314466925
SL-8 R/B                
1 12139U 81003B   26004.70527693  .00026894  00000+0  70971-3 0  9994
2 12139  82.9369 349.0692 0274980  41.5148 320.6610 15.07975404305021
SL-3 R/B                
1 12465U 81046B   26004.82781970  .00013359  00000+0  33005-3 0  9995
2 12465  81.2318   6.3043 0018006 238.5729 121.3753 15.40190659428590
SL-3 R/B                
1 12904U 81103B   26004.82643521  .00007284  00000+0  33073-3 0  9991
2 12904  81.1606 288.3119 0013700 134.8143 225.4204 15.20566995963529
SL-3 R/B                
1 13068U 82013B   26004.79739215  .00005427  00000+0  23952-3 0  9998
2 13068  81.1727 235.6172 0023640  37.0456 323.2401 15.21324056394631
SL-3 R/B                
1 13154U 82039B   26004.83848620  .00004307  00000+0  26325-3 0  9991
2 13154  81.1702 289.5195 0029631 173.9323 186.2268 15.09692621372009
